CSS (TIANHE)            
1 48274U 21035A   24244.17603918  .00101820  00000+0  11023-2 0  9997
2 48274  41.4703 346.1143 0002584 331.6531  28.4168 15.62468512190828
